STARLINK-2435
1 47843U 21018BJ  26061.16668981  .01184630  00000+0  47447-1 0  9997
2 47843  53.1190 289.9439 0001819  66.5056 352.9982 15.21718638  5823
